{"type": "FeatureCollection", "features": [ {"type": "Feature", "properties": {"norad_id": 29892, "name": "FENGYUN 1C DEB", "group": "fengyun-1c-debris", "lat": 26.648973201965383, "lon": -36.99621799559001, "alt_km": 875.9216276822135, "timestamp": "2025-12-16T13:52:37.795381+00:00", "meta": {"OBJECT_NAME": "FENGYUN 1C DEB", "OBJECT_ID": "1999-025GN", "EPOCH": "2025-12-15T22:37:39.649728", "MEAN_MOTION": 14.32249428, "ECCENTRICITY": 0.01915791, "INCLINATION": 99.1801, "RA_OF_ASC_NODE": 137.6764, "ARG_OF_PERICENTER": 288.0665, "MEAN_ANOMALY": 192.0937, "EPHEMERIS_TYPE": 0, "CLASSIFICATION_TYPE": "U", "NORAD_CAT_ID": 29892, "ELEMENT_SET_NO": 999, "REV_AT_EPOCH": 96695, "BSTAR": 0.0023577602, "MEAN_MOTION_DOT": 7.741e-05, "MEAN_MOTION_DDOT": 0}, "tle": {"line1": "1 29892U 99025GN  25349.94282002  .00007741  00000+0  23578-2 0  9990", "line2": "2 29892  99.1801 137.6764 0191579 288.0665 192.0937 14.32249428966956"}}, "geometry": {"type": "Point", "coordinates": [-36.99621799559001, 26.648973201965383]}}, {"type": "Feature", "properties": {"norad_id": 29893, "name": "FENGYUN 1C DEB", "group": "fengyun-1c-debris", "lat": -81.3740545783411, "lon": 169.05990190896696, "alt_km": 1050.3396858713013, "timestamp": "2025-12-16T13:52:37.795391+00:00", "meta": {"OBJECT_NAME": "FENGYUN 1C DEB", "OBJECT_ID": "1999-025GP", "EPOCH": "2025-12-15T19:47:16.944288", "MEAN_MOTION": 13.79462918, "ECCENTRICITY": 0.0173751, "INCLINATION": 98.5535, "RA_OF_ASC_NODE": 85.5931, "ARG_OF_PERICENTER": 145.1045, "MEAN_ANOMALY": 343.4433, "EPHEMERIS_TYPE": 0, "CLASSIFICATION_TYPE": "U", "NORAD_CAT_ID": 29893, "ELEMENT_SET_NO": 999, "REV_AT_EPOCH": 95182, "BSTAR": 0.00019000127, "MEAN_MOTION_DOT": 1.82e-06, "MEAN_MOTION_DDOT": 0}, "tle": {"line1": "1 29893U 99025GP  25349.82450167  .00000182  00000+0  19000-3 0  9995", "line2": "2 29893  98.5535  85.5931 0173751 145.1045 343.4433 13.79462918951822"}}, "geometry": {"type": "Point", "coordinates": [169.05990190896696, -81.3740545783411]}}, {"type": "Feature", "properties": {"norad_id": 29894, "name": "FENGYUN 1C DEB", "group": "fengyun-1c-debris", "lat": -42.362155670611, "lon": 53.679534902976116, "alt_km": 939.1123271931037, "timestamp": "2025-12-16T13:52:37.795401+00:00", "meta": {"OBJECT_NAME": "FENGYUN 1C DEB", "OBJECT_ID": "1999-025GQ", "EPOCH": "2025-12-14T22:55:34.101984", "MEAN_MOTION": 13.80974984, "ECCENTRICITY": 0.0168372, "INCLINATION": 99.4857, "RA_OF_ASC_NODE": 43.2802, "ARG_OF_PERICENTER": 39.2026, "MEAN_ANOMALY": 135.3916, "EPHEMERIS_TYPE": 0, "CLASSIFICATION_TYPE": "U", "NORAD_CAT_ID": 29894, "ELEMENT_SET_NO": 999, "REV_AT_EPOCH": 95107, "BSTAR": 0.0005289391, "MEAN_MOTION_DOT": 5.77e-06, "MEAN_MOTION_DDOT": 0}, "tle": {"line1": "1 29894U 99025GQ  25348.95525581  .00000577  00000+0  52894-3 0  9998", "line2": "2 29894  99.4857  43.2802 0168372  39.2026 135.3916 13.80974984951077"}}, "geometry": {"type": "Point", "coordinates": [53.679534902976116, -42.362155670611]}}, {"type": "Feature", "properties": {"norad_id": 29895, "name": "FENGYUN 1C DEB", "group": "fengyun-1c-debris", "lat": 75.24763439786685, "lon": 57.87586555722358, "alt_km": 911.0739719589692, "timestamp": "2025-12-16T13:52:37.795411+00:00", "meta": {"OBJECT_NAME": "FENGYUN 1C DEB", "OBJECT_ID": "1999-025GR", "EPOCH": "2025-12-15T21:03:22.914720", "MEAN_MOTION": 14.08267105, "ECCENTRICITY": 0.02993286, "INCLINATION": 99.8847, "RA_OF_ASC_NODE": 98.5728, "ARG_OF_PERICENTER": 335.1251, "MEAN_ANOMALY": 149.2516, "EPHEMERIS_TYPE": 0, "CLASSIFICATION_TYPE": "U", "NORAD_CAT_ID": 29895, "ELEMENT_SET_NO": 999, "REV_AT_EPOCH": 95568, "BSTAR": 0.0014750229, "MEAN_MOTION_DOT": 3.749e-05, "MEAN_MOTION_DDOT": 0}, "tle": {"line1": "1 29895U 99025GR  25349.87734855  .00003749  00000+0  14750-2 0  9999", "line2": "2 29895  99.8847  98.5728 0299328 335.1251 149.2516 14.08267105955687"}}, "geometry": {"type": "Point", "coordinates": [57.87586555722358, 75.24763439786685]}}, {"type": "Feature", "properties": {"norad_id": 29896, "name": "FENGYUN 1C DEB", "group": "fengyun-1c-debris", "lat": -80.49593611356067, "lon": -35.119569737475075, "alt_km": 1200.8846165066752, "timestamp": "2025-12-16T13:52:37.795421+00:00", "meta": {"OBJECT_NAME": "FENGYUN 1C DEB", "OBJECT_ID": "1999-025GS", "EPOCH": "2025-12-15T12:31:29.255232", "MEAN_MOTION": 13.65370609, "ECCENTRICITY": 0.02398177, "INCLINATION": 99.4224, "RA_OF_ASC_NODE": 241.1737, "ARG_OF_PERICENTER": 94.7621, "MEAN_ANOMALY": 26.8142, "EPHEMERIS_TYPE": 0, "CLASSIFICATION_TYPE": "U", "NORAD_CAT_ID": 29896, "ELEMENT_SET_NO": 999, "REV_AT_EPOCH": 94080, "BSTAR": 0.00064367987, "MEAN_MOTION_DOT": 5.97e-06, "MEAN_MOTION_DDOT": 0}, "tle": {"line1": "1 29896U 99025GS  25349.52186638  .00000597  00000+0  64368-3 0  9991", "line2": "2 29896  99.4224 241.1737 0239817  94.7621  26.8142 13.65370609940804"}}, "geometry": {"type": "Point", "coordinates": [-35.119569737475075, -80.49593611356067]}}, {"type": "Feature", "properties": {"norad_id": 29897, "name": "FENGYUN 1C DEB", "group": "fengyun-1c-debris", "lat": 72.73190719701557, "lon": -174.85827505974729, "alt_km": 904.3821272478554, "timestamp": "2025-12-16T13:52:37.795432+00:00", "meta": {"OBJECT_NAME": "FENGYUN 1C DEB", "OBJECT_ID": "1999-025GT", "EPOCH": "2025-12-15T02:51:29.509056", "MEAN_MOTION": 13.57191294, "ECCENTRICITY": 0.02965732, "INCLINATION": 98.6297, "RA_OF_ASC_NODE": 213.1022, "ARG_OF_PERICENTER": 132.5228, "MEAN_ANOMALY": 19.8648, "EPHEMERIS_TYPE": 0, "CLASSIFICATION_TYPE": "U", "NORAD_CAT_ID": 29897, "ELEMENT_SET_NO": 999, "REV_AT_EPOCH": 92972, "BSTAR": 0.0017626618, "MEAN_MOTION_DOT": 1.638e-05, "MEAN_MOTION_DDOT": 0}, "tle": {"line1": "1 29897U 99025GT  25349.11909154  .00001638  00000+0  17627-2 0  9995", "line2": "2 29897  98.6297 213.1022 0296573 132.5228  19.8648 13.57191294929721"}}, "geometry": {"type": "Point", "coordinates": [-174.85827505974729, 72.73190719701557]}}, {"type": "Feature", "properties": {"norad_id": 29898, "name": "FENGYUN 1C DEB", "group": "fengyun-1c-debris", "lat": -51.42060935820125, "lon": -7.17147614683297, "alt_km": 1195.0936070290127, "timestamp": "2025-12-16T13:52:37.795442+00:00", "meta": {"OBJECT_NAME": "FENGYUN 1C DEB", "OBJECT_ID": "1999-025GU", "EPOCH": "2025-12-15T22:40:23.623104", "MEAN_MOTION": 13.70328299, "ECCENTRICITY": 0.04270958, "INCLINATION": 98.2226, "RA_OF_ASC_NODE": 341.8414, "ARG_OF_PERICENTER": 180.6385, "MEAN_ANOMALY": 239.9285, "EPHEMERIS_TYPE": 0, "CLASSIFICATION_TYPE": "U", "NORAD_CAT_ID": 29898, "ELEMENT_SET_NO": 999, "REV_AT_EPOCH": 93205, "BSTAR": 0.0012347504, "MEAN_MOTION_DOT": 2.047e-05, "MEAN_MOTION_DDOT": 0}, "tle": {"line1": "1 29898U 99025GU  25349.94471786  .00002047  00000+0  12348-2 0  9992", "line2": "2 29898  98.2226 341.8414 0427095 180.6385 239.9285 13.70328299932051"}}, "geometry": {"type": "Point", "coordinates": [-7.17147614683297, -51.42060935820125]}}, {"type": "Feature", "properties": {"norad_id": 29899, "name": "FENGYUN 1C DEB", "group": "fengyun-1c-debris", "lat": -73.25211535831153, "lon": -64.90455388632702, "alt_km": 1389.3359941685312, "timestamp": "2025-12-16T13:52:37.795452+00:00", "meta": {"OBJECT_NAME": "FENGYUN 1C DEB", "OBJECT_ID": "1999-025GV", "EPOCH": "2025-12-15T09:41:23.500608", "MEAN_MOTION": 13.37493212, "ECCENTRICITY": 0.03535574, "INCLINATION": 98.6618, "RA_OF_ASC_NODE": 144.5265, "ARG_OF_PERICENTER": 72.2954, "MEAN_ANOMALY": 291.644, "EPHEMERIS_TYPE": 0, "CLASSIFICATION_TYPE": "U", "NORAD_CAT_ID": 29899, "ELEMENT_SET_NO": 999, "REV_AT_EPOCH": 92120, "BSTAR": 0.00020556385, "MEAN_MOTION_DOT": 1.22e-06, "MEAN_MOTION_DDOT": 0}, "tle": {"line1": "1 29899U 99025GV  25349.40374422  .00000122  00000+0  20556-3 0  9996", "line2": "2 29899  98.6618 144.5265 0353557  72.2954 291.6440 13.37493212921206"}}, "geometry": {"type": "Point", "coordinates": [-64.90455388632702, -73.25211535831153]}}, {"type": "Feature", "properties": {"norad_id": 29901, "name": "FENGYUN 1C DEB", "group": "fengyun-1c-debris", "lat": 30.688937091424243, "lon": 155.61039665370907, "alt_km": 1246.1579651168531, "timestamp": "2025-12-16T13:52:37.795464+00:00", "meta": {"OBJECT_NAME": "FENGYUN 1C DEB", "OBJECT_ID": "1999-025GX", "EPOCH": "2025-12-15T10:59:29.258592", "MEAN_MOTION": 13.33255298, "ECCENTRICITY": 0.03791674, "INCLINATION": 98.7444, "RA_OF_ASC_NODE": 159.893, "ARG_OF_PERICENTER": 278.5287, "MEAN_ANOMALY": 134.6444, "EPHEMERIS_TYPE": 0, "CLASSIFICATION_TYPE": "U", "NORAD_CAT_ID": 29901, "ELEMENT_SET_NO": 999, "REV_AT_EPOCH": 91955, "BSTAR": 0.00044528169, "MEAN_MOTION_DOT": 2.89e-06, "MEAN_MOTION_DDOT": 0}, "tle": {"line1": "1 29901U 99025GX  25349.45797753  .00000289  00000+0  44528-3 0  9990", "line2": "2 29901  98.7444 159.8930 0379167 278.5287 134.6444 13.33255298919552"}}, "geometry": {"type": "Point", "coordinates": [155.61039665370907, 30.688937091424243]}}, {"type": "Feature", "properties": {"norad_id": 29904, "name": "FENGYUN 1C DEB", "group": "fengyun-1c-debris", "lat": -23.732041482722316, "lon": 32.70954274852851, "alt_km": 618.8850635071631, "timestamp": "2025-12-16T13:52:37.795475+00:00", "meta": {"OBJECT_NAME": "FENGYUN 1C DEB", "OBJECT_ID": "1999-025HA", "EPOCH": "2025-12-15T19:41:53.937888", "MEAN_MOTION": 14.44492278, "ECCENTRICITY": 0.02076019, "INCLINATION": 99.0418, "RA_OF_ASC_NODE": 27.8895, "ARG_OF_PERICENTER": 309.487, "MEAN_ANOMALY": 48.8118, "EPHEMERIS_TYPE": 0, "CLASSIFICATION_TYPE": "U", "NORAD_CAT_ID": 29904, "ELEMENT_SET_NO": 999, "REV_AT_EPOCH": 99108, "BSTAR": 0.00032936395, "MEAN_MOTION_DOT": 1.418e-05, "MEAN_MOTION_DDOT": 0}, "tle": {"line1": "1 29904U 99025HA  25349.82076317  .00001418  00000+0  32936-3 0  9995", "line2": "2 29904  99.0418  27.8895 0207601 309.4870  48.8118 14.44492278991085"}}, "geometry": {"type": "Point", "coordinates": [32.70954274852851, -23.732041482722316]}}]}